SPACEBEE-6              
1 43818U 18099BN  24350.09987699  .00352521  00000+0  30410-2 0  9999
2 43818  97.5085  63.7452 0005533 317.6090  42.4743 15.68160421330711
